FORMOSAT 7-3            
1 44343U 19036E   26068.82630502  .00006445  00000+0  37650-3 0  9997
2 44343  23.9981 141.9797 0001061 150.4425 209.6139 15.08933962368215
STARLINK-4612           
1 53750U 22107BC  26068.84305576 -.00000211  00000+0  48533-5 0  9994
2 53750  53.2153 263.6409 0001300  83.9132 276.2008 15.08836007194626
